SL-3 R/B                
1 19046U 88032B   23288.56514202  .00006958  00000+0  46041-3 0  9994
2 19046  97.4271 273.0048 0034841  24.8138 335.4756 15.07148519919588
SL-16 R/B               
1 19120U 88039B   23288.55809119  .00000097  00000+0  68955-4 0  9994
2 19120  71.0126 120.7508 0023976 246.3673 113.4935 14.19346703834057
COSMOS 1953             
1 19210U 88050A   23288.52488219  .00006736  00000+0  39564-3 0  9997
2 19210  82.5144 307.6577 0014264 301.1609  58.8222 15.11470697904710
SL-8 R/B                
1 19257U 88053B   23288.45096039  .00000670  00000+0  22987-3 0  9990
2 19257  74.0457 286.3673 0021236 321.6375 148.4378 14.37944759850606
COSMOS 1975             
1 19573U 88093A   23288.42225877  .00010095  00000+0  60853-3 0  9992
2 19573  82.5233 264.6845 0015439 356.5189   3.5930 15.10553964886375
SL-14 R/B               
1 19574U 88093B   23288.58081274  .00000880  00000+0  10231-3 0  9997
2 19574  82.5306 143.4370 0022650  56.3138   3.2264 14.84052819871022
SL-16 R/B               
1 19650U 88102B   23288.18670895 -.00000028  00000+0  99821-5 0  9991
2 19650  71.0005 195.4062 0016707 266.2360  93.6853 14.15919243802811
INTERCOSMOS 24          
1 20261U 89080A   23288.57832057  .00001258  00000+0  36814-3 0  9996
2 20261  82.6028 313.4590 1198373 162.4726 202.1772 12.57296856556596
SL-14 R/B               
1 20262U 89080C   23288.60456684  .00000429  00000+0  12375-3 0  9994
2 20262  82.5992  15.3912 1235111  25.9014 339.8895 12.49484666550695
DELTA 2 R/B(1)          
1 20303U 89085B   23288.38029879  .03524082  21465-5  91907-3 0  9993
2 20303  35.6160 163.0640 0010190 318.1643  41.9922 16.27314415855861
DELTA 1 R/B             
1 20323U 89089B   23288.48537298  .00001390  00000+0  36354-3 0  9999
2 20323  97.0843 256.8097 0071214   7.6938 352.5334 14.49061335768763
ARIANE 40 R/B           
1 20443U 90005H   23288.60973783  .00000720  00000+0  24898-3 0  9995
2 20443  98.4271 354.0348 0009482 319.8156  40.2330 14.38647102766781
DELTA 2 R/B(1)          
1 20453U 90008B   23288.59913547  .00019433  00000+0  85371-3 0  9993
2 20453  35.6200 244.0726 0227439  75.5423 287.0417 15.00857756792517
COSMOS 2058             
1 20465U 90010A   23288.21232254  .00004919  00000+0  37903-3 0  9998
2 20465  82.4908 182.7059 0016091  63.9047 296.3831 15.01337570810292
SL-14 R/B               
1 20466U 90010B   23288.61510070  .00000955  00000+0  11698-3 0  9997
2 20466  82.5067   9.2363 0019115 307.2389  52.7080 14.82067882798653
SL-14 R/B               
1 20511U 90018B   23288.63706494  .00000786  00000+0  98907-4 0  9996
2 20511  82.5216 321.0398 0018763  91.4289  29.6936 14.80693247792871
HST                     
1 20580U 90037B   23288.46902020  .00007664  00000+0  39575-3 0  9994
2 20580  28.4686 187.0376 0002398 244.6083 288.2611 15.14457495639700
SL-16 R/B               
1 20625U 90046B   23288.54668964  .00000211  00000+0  13376-3 0  9991
2 20625  70.9998 337.6256 0015129 203.9904 156.0516 14.14774955724460
COSMOS 2084             
1 20663U 90055A   23288.61051443  .00005164  00000+0  39970-3 0  9999
2 20663  62.7924  63.6356 0129712  97.3234 264.2625 14.96270097804798
SL-6 R/B(2)             
1 20666U 90055D   23288.48264856  .00003610  00000+0  29528-3 0  9993
2 20666  62.7852 337.7340 0115099 118.9660 242.3034 14.96192776806740
SL-8 R/B                
1 20775U 90078B   23288.55034544  .00026614  00000+0  11386-2 0  9997
2 20775  82.9152 295.9793 0502881 359.5588   0.5094 14.52033934680580
SL-8 R/B                
1 21088U 91006B   23288.56767701  .00000236  00000+0  22280-3 0  9994
2 21088  82.9382 101.7300 0021909 332.0359  88.6842 13.77280530643466
OKEAN-3                 
1 21397U 91039A   23288.56096726  .00005092  00000+0  44792-3 0  9992
2 21397  82.5167 100.0774 0018061  59.2948 301.0050 14.96214137733645
COSMOS 2151             
1 21422U 91042A   23288.48768172  .00002998  00000+0  27514-3 0  9992
2 21422  82.5027 205.0141 0015160 125.4395 234.8244 14.94465867732072
SL-14 R/B               
1 21423U 91042B   23288.56496344  .00000798  00000+0  10134-3 0  9997
2 21423  82.4925 320.9222 0016150 234.6581 125.3124 14.80425783723389
ERS-1                   
1 21574U 91050A   23288.58861732  .00000681  00000+0  23777-3 0  9990
2 21574  98.7564 270.0984 0031548 280.2430  79.5200 14.38259730689749
ARIANE 40 R/B           
1 21610U 91050F   23288.60547738  .00000836  00000+0  27048-3 0  9998
2 21610  98.3248 352.2230 0002979 183.3172 176.7998 14.41528999692719
INTERCOSMOS 25          
1 21819U 91086A   23288.54575490  .00004223  00000+0  84631-3 0  9992
2 21819  82.6015 117.9447 1505610 199.4546 154.2575 12.07630264390736
SL-8 R/B                
1 21876U 92008B   23288.51998815  .00000143  00000+0  13162-3 0  9995
2 21876  82.9305 199.2429 0036123  62.3594 110.8013 13.75776514588936
SL-8 R/B                
1 21938U 92020B   23288.56875531  .00000222  00000+0  21534-3 0  9992
2 21938  82.9272  84.4014 0028345 221.1911 209.2322 13.75372513580690
COSMOS 2219             
1 22219U 92076A   23288.62704713 -.00000103  00000+0 -29640-4 0  9993
2 22219  71.0618  49.0397 0015462  99.4540 260.8330 14.13791603594546
SL-16 R/B               
1 22220U 92076B   23288.64142425  .00000381  00000+0  21463-3 0  9993
2 22220  70.9995 233.3764 0013422 340.7842 192.5935 14.16591274597754
COSMOS 2221             
1 22236U 92080A   23288.57225906  .00003922  00000+0  40024-3 0  9991
2 22236  82.5103  34.3164 0014702 242.9126 117.0594 14.90341213650036
SL-16 R/B               
1 22285U 92093B   23288.56953793  .00000411  00000+0  23570-3 0  9997
2 22285  71.0234  43.1267 0005609 224.2011 135.8664 14.15191836589197
COSMOS 2228             
1 22286U 92094A   23288.58365060  .00003375  00000+0  34004-3 0  9991
2 22286  82.5224 351.9535 0020195   4.3134 355.8255 14.90738391645247
SL-16 R/B               
1 22566U 93016B   23288.59969438  .00000226  00000+0  14103-3 0  9997
2 22566  71.0058 254.8986 0011848 225.1249 134.8913 14.15072550578226
COSMOS 2242             
1 22626U 93024A   23288.50206729  .00003150  00000+0  31954-3 0  9993
2 22626  82.5252  20.7108 0018292   6.0189 354.1246 14.90473244649606
SL-16 R/B               
1 22803U 93059B   23288.55817479  .00000219  00000+0  13283-3 0  9991
2 22803  70.9906  58.3447 0015002 107.4570 252.8194 14.16960498555410
ARIANE 40 R/B           
1 22830U 93061H   23288.60731464  .00000545  00000+0  21999-3 0  9994
2 22830  98.6044 353.7799 0010692 357.9310   2.1827 14.31877037568681
COSMOS 2278             
1 23087U 94023A   23288.50596084  .00000068  00000+0  60329-4 0  9995
2 23087  71.0550 207.7172 0011498 284.2299  75.7546 14.14006568520933
SL-16 R/B               
1 23088U 94023B   23288.56793400 -.00000122  00000+0 -38668-4 0  9997
2 23088  70.9969 110.5229 0004297 220.1169 139.9637 14.14787416522163
SL-16 R/B               
1 23343U 94074B   23288.63553774  .00001052  00000+0  15401-3 0  9993
2 23343  97.8259 334.2577 0006744 175.5435 301.2329 14.77644175557798
SL-16 R/B               
1 23405U 94077B   23288.60674485  .00000136  00000+0  94265-4 0  9993
2 23405  70.9855  35.2787 0001647 351.0661   9.0432 14.15338133492265
ERS-2                   
1 23560U 95021A   23288.49051833  .00092375  00000+0  13392-2 0  9994
2 23560  98.5286 273.8919 0003231 102.7294 257.4318 15.55527440527786
ARIANE 40+ R/B          
1 23561U 95021B   23288.63637903  .00000708  00000+0  24584-3 0  9994
2 23561  98.5613 351.2060 0006002 235.9895 243.4664 14.38563797493230
SL-16 R/B               
1 23705U 95058B   23288.57103837  .00000347  00000+0  20247-3 0  9992
2 23705  71.0218 219.3185 0012088   4.6667 355.4566 14.15253828443885
SL-16 R/B               
1 24298U 96051B   23288.56044144 -.00000041  00000+0  42135-5 0  9992
2 24298  70.8235 227.2918 0015943 339.9316  20.1175 14.12515661397938
ORBVIEW 2 (SEASTAR)     
1 24883U 97037A   23288.60269890  .00000847  00000+0  31838-3 0  9998
2 24883  98.7424  60.2918 0003281 113.0054 247.1477 14.34201819382834
SL-16 R/B               
1 25400U 98043G   23288.55875238  .00000221  00000+0  11196-3 0  9996
2 25400  98.7152 225.5801 0010650  42.8966 317.3042 14.25651922314134
SL-16 R/B               
1 25407U 98045B   23288.58168265  .00000361  00000+0  20752-3 0  9996
2 25407  71.0110 223.6568 0009692 278.3720  81.6304 14.15940153303075
ISS (ZARYA)             
1 25544U 98067A   23288.71716336  .00022046  00000+0  38955-3 0  9993
2 25544  51.6419  91.5141 0004896 107.4642  21.3001 15.50256699420483
CZ-4B R/B               
1 25732U 99025C   23288.63628421  .00000230  00000+0  13322-3 0  9997
2 25732  98.7902 331.7854 0036895 341.0951 131.1580 14.17869275264002
OKEAN-O                 
1 25860U 99039A   23288.41899432  .00001731  00000+0  24838-3 0  9993
2 25860  98.0750 335.8101 0000872  75.7670 284.3636 14.77793451304852
SL-16 R/B               
1 25861U 99039B   23288.57899886  .00001279  00000+0  17780-3 0  9999
2 25861  98.1261 327.3237 0014700 207.0824 152.9621 14.79562802307216
DELTA 2 R/B             
1 25876U 99041E   23288.14744791  .00002232  00000+0  40992-3 0  9996
2 25876  51.7659 189.8224 0521589 290.7393  63.8398 14.07016305239402
HELIOS 1B               
1 25977U 99064A   23288.60779287  .00001544  00000+0  19400-3 0  9997
2 25977  98.2761 146.6640 0002217  56.2037 303.9387 14.83662106555192
TERRA                   
1 25994U 99068A   23288.53800354  .00001145  00000+0  25132-3 0  9998
2 25994  98.0824 353.8812 0002939  68.9140  37.9185 14.59374895267219
SL-16 R/B               
1 26070U 00006B   23288.58271478 -.00000140  00000+0 -47243-4 0  9996
2 26070  71.0003 139.6529 0014409  72.6572 287.6125 14.15572381224567
TITAN 4B R/B            
1 26474U 00047B   23288.49712084  .00004571  00000+0  36698-3 0  9993
2 26474  67.9940 325.9153 0055917 297.6923  61.8553 14.99760742261177
